{"type": "FeatureCollection", "features": [ {"type": "Feature", "properties": {"norad_id": 34833, "name": "IRIDIUM 33 DEB", "group": "iridium-33-debris", "lat": 56.88626630661856, "lon": 57.13281452854037, "alt_km": 701.7164562585276, "timestamp": "2025-12-11T08:58:27.510418+00:00", "meta": {"OBJECT_NAME": "IRIDIUM 33 DEB", "OBJECT_ID": "1997-051MH", "EPOCH": "2025-12-10T23:03:13.627296", "MEAN_MOTION": 14.52360033, "ECCENTRICITY": 0.0021807, "INCLINATION": 86.3925, "RA_OF_ASC_NODE": 51.7603, "ARG_OF_PERICENTER": 104.0479, "MEAN_ANOMALY": 313.4117, "EPHEMERIS_TYPE": 0, "CLASSIFICATION_TYPE": "U", "NORAD_CAT_ID": 34833, "ELEMENT_SET_NO": 999, "REV_AT_EPOCH": 87689, "BSTAR": 0.0011953, "MEAN_MOTION_DOT": 4.899e-05, "MEAN_MOTION_DDOT": 0}, "tle": {"line1": "1 34833U 97051MH  25344.96057439  .00004899  00000+0  11953-2 0  9994", "line2": "2 34833  86.3925  51.7603 0021807 104.0479 313.4117 14.52360033876896"}}, "geometry": {"type": "Point", "coordinates": [57.13281452854037, 56.88626630661856]}}, {"type": "Feature", "properties": {"norad_id": 34870, "name": "IRIDIUM 33 DEB", "group": "iridium-33-debris", "lat": -86.01635421509405, "lon": -113.18540823408259, "alt_km": 647.0106645468222, "timestamp": "2025-12-11T08:58:27.510429+00:00", "meta": {"OBJECT_NAME": "IRIDIUM 33 DEB", "OBJECT_ID": "1997-051MQ", "EPOCH": "2025-12-10T16:16:47.325792", "MEAN_MOTION": 14.76360658, "ECCENTRICITY": 0.00158788, "INCLINATION": 86.3108, "RA_OF_ASC_NODE": 315.0279, "ARG_OF_PERICENTER": 190.0668, "MEAN_ANOMALY": 346.5866, "EPHEMERIS_TYPE": 0, "CLASSIFICATION_TYPE": "U", "NORAD_CAT_ID": 34870, "ELEMENT_SET_NO": 999, "REV_AT_EPOCH": 88880, "BSTAR": 0.0023954817, "MEAN_MOTION_DOT": 0.00016709, "MEAN_MOTION_DDOT": 0}, "tle": {"line1": "1 34870U 97051MQ  25344.67832553  .00016709  00000+0  23955-2 0  9999", "line2": "2 34870  86.3108 315.0279 0015878 190.0668 346.5866 14.76360658888802"}}, "geometry": {"type": "Point", "coordinates": [-113.18540823408259, -86.01635421509405]}}, {"type": "Feature", "properties": {"norad_id": 34896, "name": "IRIDIUM 33 DEB", "group": "iridium-33-debris", "lat": 17.83684006524503, "lon": 146.11447134512204, "alt_km": 664.4977915159561, "timestamp": "2025-12-11T08:58:27.510439+00:00", "meta": {"OBJECT_NAME": "IRIDIUM 33 DEB", "OBJECT_ID": "1997-051MY", "EPOCH": "2025-12-10T06:18:53.078976", "MEAN_MOTION": 14.66236202, "ECCENTRICITY": 0.0024107, "INCLINATION": 86.3294, "RA_OF_ASC_NODE": 327.796, "ARG_OF_PERICENTER": 223.7133, "MEAN_ANOMALY": 198.9285, "EPHEMERIS_TYPE": 0, "CLASSIFICATION_TYPE": "U", "NORAD_CAT_ID": 34896, "ELEMENT_SET_NO": 999, "REV_AT_EPOCH": 87583, "BSTAR": 0.0014714, "MEAN_MOTION_DOT": 8.162e-05, "MEAN_MOTION_DDOT": 0}, "tle": {"line1": "1 34896U 97051MY  25344.26311434  .00008162  00000+0  14714-2 0  9999", "line2": "2 34896  86.3294 327.7960 0024107 223.7133 198.9285 14.66236202875838"}}, "geometry": {"type": "Point", "coordinates": [146.11447134512204, 17.83684006524503]}}, {"type": "Feature", "properties": {"norad_id": 34926, "name": "IRIDIUM 33 DEB", "group": "iridium-33-debris", "lat": -52.554337903790795, "lon": 3.837707457774508, "alt_km": 665.779756634759, "timestamp": "2025-12-11T08:58:27.510450+00:00", "meta": {"OBJECT_NAME": "IRIDIUM 33 DEB", "OBJECT_ID": "1997-051NF", "EPOCH": "2025-12-11T01:05:29.819328", "MEAN_MOTION": 14.54283993, "ECCENTRICITY": 0.0075707, "INCLINATION": 86.1321, "RA_OF_ASC_NODE": 9.0582, "ARG_OF_PERICENTER": 298.5987, "MEAN_ANOMALY": 90.146, "EPHEMERIS_TYPE": 0, "CLASSIFICATION_TYPE": "U", "NORAD_CAT_ID": 34926, "ELEMENT_SET_NO": 999, "REV_AT_EPOCH": 86432, "BSTAR": 0.0083538, "MEAN_MOTION_DOT": 0.00036974, "MEAN_MOTION_DDOT": 0}, "tle": {"line1": "1 34926U 97051NF  25345.04548402  .00036974  00000+0  83538-2 0  9999", "line2": "2 34926  86.1321   9.0582 0075707 298.5987  90.1460 14.54283993864326"}}, "geometry": {"type": "Point", "coordinates": [3.837707457774508, -52.554337903790795]}}, {"type": "Feature", "properties": {"norad_id": 34985, "name": "IRIDIUM 33 DEB", "group": "iridium-33-debris", "lat": 47.10271797270029, "lon": -126.45570088377741, "alt_km": 748.2556681427468, "timestamp": "2025-12-11T08:58:27.510466+00:00", "meta": {"OBJECT_NAME": "IRIDIUM 33 DEB", "OBJECT_ID": "1997-051NR", "EPOCH": "2025-12-11T05:16:50.812320", "MEAN_MOTION": 14.41999117, "ECCENTRICITY": 0.0020588, "INCLINATION": 86.3697, "RA_OF_ASC_NODE": 57.5278, "ARG_OF_PERICENTER": 225.008, "MEAN_ANOMALY": 189.5242, "EPHEMERIS_TYPE": 0, "CLASSIFICATION_TYPE": "U", "NORAD_CAT_ID": 34985, "ELEMENT_SET_NO": 999, "REV_AT_EPOCH": 87153, "BSTAR": 0.0010472, "MEAN_MOTION_DOT": 3.461e-05, "MEAN_MOTION_DDOT": 0}, "tle": {"line1": "1 34985U 97051NR  25345.22003255  .00003461  00000+0  10472-2 0  9998", "line2": "2 34985  86.3697  57.5278 0020588 225.0080 189.5242 14.41999117871535"}}, "geometry": {"type": "Point", "coordinates": [-126.45570088377741, 47.10271797270029]}}, {"type": "Feature", "properties": {"norad_id": 35051, "name": "IRIDIUM 33 DEB", "group": "iridium-33-debris", "lat": 37.95826022788163, "lon": 12.331567394730085, "alt_km": 726.5856411676996, "timestamp": "2025-12-11T08:58:27.510488+00:00", "meta": {"OBJECT_NAME": "IRIDIUM 33 DEB", "OBJECT_ID": "1997-051NX", "EPOCH": "2025-12-10T01:16:41.683872", "MEAN_MOTION": 14.47578215, "ECCENTRICITY": 0.00106632, "INCLINATION": 86.3242, "RA_OF_ASC_NODE": 10.0324, "ARG_OF_PERICENTER": 98.47, "MEAN_ANOMALY": 261.7712, "EPHEMERIS_TYPE": 0, "CLASSIFICATION_TYPE": "U", "NORAD_CAT_ID": 35051, "ELEMENT_SET_NO": 999, "REV_AT_EPOCH": 86957, "BSTAR": 0.00086361177, "MEAN_MOTION_DOT": 3.199e-05, "MEAN_MOTION_DDOT": 0}, "tle": {"line1": "1 35051U 97051NX  25344.05326023  .00003199  00000+0  86361-3 0  9993", "line2": "2 35051  86.3242  10.0324 0010663  98.4700 261.7712 14.47578215869570"}}, "geometry": {"type": "Point", "coordinates": [12.331567394730085, 37.95826022788163]}}, {"type": "Feature", "properties": {"norad_id": 35052, "name": "IRIDIUM 33 DEB", "group": "iridium-33-debris", "lat": -52.11734594400081, "lon": -154.20733728131054, "alt_km": 778.4037285771446, "timestamp": "2025-12-11T08:58:27.510506+00:00", "meta": {"OBJECT_NAME": "IRIDIUM 33 DEB", "OBJECT_ID": "1997-051NY", "EPOCH": "2025-12-10T20:12:46.550016", "MEAN_MOTION": 14.38488803, "ECCENTRICITY": 0.0013692, "INCLINATION": 86.3312, "RA_OF_ASC_NODE": 21.2899, "ARG_OF_PERICENTER": 90.3566, "MEAN_ANOMALY": 269.9201, "EPHEMERIS_TYPE": 0, "CLASSIFICATION_TYPE": "U", "NORAD_CAT_ID": 35052, "ELEMENT_SET_NO": 999, "REV_AT_EPOCH": 87248, "BSTAR": 0.00026897, "MEAN_MOTION_DOT": 8.42e-06, "MEAN_MOTION_DDOT": 0}, "tle": {"line1": "1 35052U 97051NY  25344.84220544  .00000842  00000+0  26897-3 0  9992", "line2": "2 35052  86.3312  21.2899 0013692  90.3566 269.9201 14.38488803872486"}}, "geometry": {"type": "Point", "coordinates": [-154.20733728131054, -52.11734594400081]}}, {"type": "Feature", "properties": {"norad_id": 35080, "name": "IRIDIUM 33 DEB", "group": "iridium-33-debris", "lat": 6.078208856034842, "lon": -127.37652139938886, "alt_km": 571.5972360860751, "timestamp": "2025-12-11T08:58:27.510530+00:00", "meta": {"OBJECT_NAME": "IRIDIUM 33 DEB", "OBJECT_ID": "1997-051PF", "EPOCH": "2025-12-10T22:29:41.830944", "MEAN_MOTION": 14.85676849, "ECCENTRICITY": 0.0060994, "INCLINATION": 86.2065, "RA_OF_ASC_NODE": 53.2369, "ARG_OF_PERICENTER": 185.895, "MEAN_ANOMALY": 174.1564, "EPHEMERIS_TYPE": 0, "CLASSIFICATION_TYPE": "U", "NORAD_CAT_ID": 35080, "ELEMENT_SET_NO": 999, "REV_AT_EPOCH": 69661, "BSTAR": 0.010958, "MEAN_MOTION_DOT": 0.00099464, "MEAN_MOTION_DDOT": 0}, "tle": {"line1": "1 35080U 97051PF  25344.93728971  .00099464  00000+0  10958-1 0  9997", "line2": "2 35080  86.2065  53.2369 0060994 185.8950 174.1564 14.85676849696611"}}, "geometry": {"type": "Point", "coordinates": [-127.37652139938886, 6.078208856034842]}}, {"type": "Feature", "properties": {"norad_id": 35297, "name": "IRIDIUM 33 DEB", "group": "iridium-33-debris", "lat": 73.32441726957711, "lon": -128.83419179811108, "alt_km": 724.9202707102431, "timestamp": "2025-12-11T08:58:27.510546+00:00", "meta": {"OBJECT_NAME": "IRIDIUM 33 DEB", "OBJECT_ID": "1997-051PM", "EPOCH": "2025-12-06T00:31:29.302752", "MEAN_MOTION": 14.45108459, "ECCENTRICITY": 0.00170329, "INCLINATION": 86.3867, "RA_OF_ASC_NODE": 65.6268, "ARG_OF_PERICENTER": 161.2449, "MEAN_ANOMALY": 198.9384, "EPHEMERIS_TYPE": 0, "CLASSIFICATION_TYPE": "U", "NORAD_CAT_ID": 35297, "ELEMENT_SET_NO": 999, "REV_AT_EPOCH": 70329, "BSTAR": 0.0012426888, "MEAN_MOTION_DOT": 4.371e-05, "MEAN_MOTION_DDOT": 0}, "tle": {"line1": "1 35297U 97051PM  25340.02186693  .00004371  00000+0  12427-2 0  9999", "line2": "2 35297  86.3867  65.6268 0017032 161.2449 198.9384 14.45108459703293"}}, "geometry": {"type": "Point", "coordinates": [-128.83419179811108, 73.32441726957711]}}, {"type": "Feature", "properties": {"norad_id": 35299, "name": "IRIDIUM 33 DEB", "group": "iridium-33-debris", "lat": 59.48698433505516, "lon": 40.10442867451389, "alt_km": 721.1702910124686, "timestamp": "2025-12-11T08:58:27.510563+00:00", "meta": {"OBJECT_NAME": "IRIDIUM 33 DEB", "OBJECT_ID": "1997-051PP", "EPOCH": "2025-12-10T21:51:11.079360", "MEAN_MOTION": 14.40845686, "ECCENTRICITY": 0.0058943, "INCLINATION": 86.2883, "RA_OF_ASC_NODE": 33.9824, "ARG_OF_PERICENTER": 108.2071, "MEAN_ANOMALY": 69.9595, "EPHEMERIS_TYPE": 0, "CLASSIFICATION_TYPE": "U", "NORAD_CAT_ID": 35299, "ELEMENT_SET_NO": 999, "REV_AT_EPOCH": 86304, "BSTAR": 0.0011418, "MEAN_MOTION_DOT": 3.753e-05, "MEAN_MOTION_DDOT": 0}, "tle": {"line1": "1 35299U 97051PP  25344.91054490  .00003753  00000+0  11418-2 0  9994", "line2": "2 35299  86.2883  33.9824 0058943 108.2071  69.9595 14.40845686863042"}}, "geometry": {"type": "Point", "coordinates": [40.10442867451389, 59.48698433505516]}}]}